H1 CPF 01  gfz 2021 01 26 13  5262 terrasarx 
H2 0702601  6201 31698    2021 01 26 12 59 42 2021 01 31 00 00 42   120 1 1  0 0 0
H9
10 0 59244  15822.000000  0    -959543.042  -1395124.167  -6683847.880
10 0 59244  15942.000000  0   -1785223.100  -1711769.695  -6435997.694
10 0 59244  16062.000000  0   -2585123.483  -1984528.137  -6075820.922
10 0 59244  16182.000000  0   -3344545.893  -2209227.211  -5609525.707
10 0 59244  16302.000000  0   -4049399.936  -2382766.839  -5045168.135
10 0 59244  16422.000000  0   -4686466.833  -2503162.772  -4392524.644
10 0 59244  16542.000000  0   -5243651.709  -2569567.666  -3662933.194
10 0 59244  16662.000000  0   -5710220.903  -2582269.414  -2869105.361
10 0 59244  16782.000000  0   -6077018.535  -2542665.728  -2024910.317
10 0 59244  16902.000000  0   -6336656.310  -2453215.657  -1145134.630
10 0 59244  17022.000000  0   -6483672.019  -2317368.512   -245221.435
10 0 59244  17142.000000  0   -6514651.458  -2139471.574    659005.745
10 0 59244  17262.000000  0   -6428310.837  -1924658.462   1551629.089
10 0 59244  17382.000000  0   -6225535.628  -1678721.169   2416926.476
10 0 59244  17502.000000  0   -5909374.534  -1407969.178   3239657.049
10 0 59244  17622.000000  0   -5484991.286  -1119078.950   4005337.183
10 0 59244  17742.000000  0   -4959571.924   -818937.559   4700501.492
10 0 59244  17862.000000  0   -4342192.940   -514485.306   5312939.454
10 0 59244  17982.000000  0   -3643656.458   -212561.088   5831908.259
10 0 59244  18102.000000  0   -2876292.324     80247.033   6248318.432
10 0 59244  18222.000000  0   -2053732.411    357741.863   6554887.337
10 0 59244  18342.000000  0   -1190662.985    614244.070   6746260.372
10 0 59244  18462.000000  0    -302559.681    844705.989   6819098.512
10 0 59244  18582.000000  0     594590.074   1044809.318   6772132.196
10 0 59244  18702.000000  0    1484573.699   1211045.519   6606182.031
10 0 59244  18822.000000  0    2351245.440   1340777.737   6324145.320
10 0 59244  18942.000000  0    3178818.621   1432282.583   5930949.041
10 0 59244  19062.000000  0    3952155.400   1484771.665   5433469.213
10 0 59244  19182.000000  0    4657046.481   1498392.326   4840415.808
10 0 59244  19302.000000  0    5280477.696   1474208.474   4162188.076
10 0 59244  19422.000000  0    5810880.863   1414160.884   3410696.791
10 0 59244  19542.000000  0    6238357.476   1321008.056   2599154.992
10 0 59244  19662.000000  0    6554872.520   1198247.346   1741845.551
10 0 59244  19782.000000  0    6754414.658   1050020.401    853865.433
10 0 59244  19902.000000  0    6833116.174    881003.716    -49146.821
10 0 59244  20022.000000  0    6789331.484    696287.338   -951295.085
10 0 59244  20142.000000  0    6623668.974    501244.740  -1836715.161
10 0 59244  20262.000000  0    6338977.483    301396.954  -2689860.989
10 0 59244  20382.000000  0    5940289.114    102275.199  -3495783.193
10 0 59244  20502.000000  0    5434719.291    -90714.665  -4240394.147
10 0 59244  20622.000000  0    4831326.134   -272422.379  -4910713.542
10 0 59244  20742.000000  0    4140935.165   -438074.818  -5495088.515
10 0 59244  20862.000000  0    3375935.511   -583386.732  -5983388.022
10 0 59244  20982.000000  0    2550049.854   -704659.069  -6367169.131
10 0 59244  21102.000000  0    1678083.330   -798861.482  -6639811.076
10 0 59244  21222.000000  0     775658.764   -863699.134  -6796618.368
10 0 59244  21342.000000  0    -141060.261   -897662.447  -6834893.885
10 0 59244  21462.000000  0   -1055653.248   -900058.288  -6753979.265
10 0 59244  21582.000000  0   -1951729.799   -871023.460  -6555265.532
10 0 59244  21702.000000  0   -2813217.225   -811519.338  -6242171.038
10 0 59244  21822.000000  0   -3624641.864   -723308.498  -5820088.213
10 0 59244  21942.000000  0   -4371404.301   -608913.467  -5296302.027
10 0 59244  22062.000000  0   -5040044.017   -471557.647  -4679875.091
10 0 59244  22182.000000  0   -5618486.535   -315090.052  -3981502.413
10 0 59244  22302.000000  0   -6096271.134   -143894.719  -3213336.572
10 0 59244  22422.000000  0   -6464751.668     37214.333  -2388782.984
10 0 59244  22542.000000  0   -6717266.382    223109.478  -1522270.286
10 0 59244  22662.000000  0   -6849272.140    408475.833   -628997.441
10 0 59244  22782.000000  0   -6858436.933    587942.961    275338.835
10 0 59244  22902.000000  0   -6744687.000    756219.760   1174826.317
10 0 59244  23022.000000  0   -6510211.114    908228.569   2053624.938
10 0 59244  23142.000000  0   -6159418.960   1039235.083   2896255.293
10 0 59244  23262.000000  0   -5698853.718   1144970.679   3687880.101
10 0 59244  23382.000000  0   -5137061.625   1221743.822   4414571.426
10 0 59244  23502.000000  0   -4484423.575   1266538.046   5063558.171
10 0 59244  23622.000000  0   -3752953.445   1277093.826   5623449.677
10 0 59244  23742.000000  0   -2956068.490   1251973.176   6084432.887
10 0 59244  23862.000000  0   -2108335.681   1190605.363   6438440.724
10 0 59244  23982.000000  0   -1225198.358   1093313.470   6679287.503
10 0 59244  24102.000000  0    -322691.297    961320.349   6802769.510
10 0 59244  24222.000000  0     582850.419    796734.662   6806733.019
10 0 59244  24342.000000  0    1475085.852    602517.057   6691109.260
10 0 59244  24462.000000  0    2337961.685    382427.384   6457915.641
10 0 59244  24582.000000  0    3156000.316    140953.246   6111223.733
10 0 59244  24702.000000  0    3914579.412   -116779.315   5657093.141
10 0 59244  24822.000000  0    4600196.591   -385111.409   5103471.023
10 0 59244  24942.000000  0    5200715.463   -657971.006   4460059.214
10 0 59244  25062.000000  0    5705588.385   -929005.077   3738149.346
10 0 59244  25182.000000  0    6106051.784  -1191721.461   2950428.186
10 0 59244  25302.000000  0    6395288.189  -1439637.031   2110754.356
10 0 59244  25422.000000  0    6568551.030  -1666428.065   1233911.517
10 0 59244  25542.000000  0    6623248.883  -1866080.349    335343.010
10 0 59244  25662.000000  0    6558987.250  -2033035.678   -569128.414
10 0 59244  25782.000000  0    6377564.440  -2162328.357  -1463588.605
10 0 59244  25902.000000  0    6082923.883  -2249710.432  -2332320.718
10 0 59244  26022.000000  0    5681062.693  -2291761.298  -3160088.443
10 0 59244  26142.000000  0    5179900.661  -2285979.243  -3932406.618
10 0 59244  26262.000000  0    4589114.558  -2230853.374  -4635794.849
10 0 59244  26382.000000  0    3919940.922  -2125914.574  -5258010.247
10 0 59244  26502.000000  0    3184951.820  -1971764.322  -5788253.513
10 0 59244  26622.000000  0    2397811.966  -1770081.018  -6217345.544
10 0 59244  26742.000000  0    1573022.401  -1523604.377  -6537876.315
10 0 59244  26862.000000  0     725652.007  -1236097.912  -6744322.442
10 0 59244  26982.000000  0    -128935.032   -912291.436  -6833131.979
10 0 59244  27102.000000  0    -975352.417   -557803.961  -6802778.398
10 0 59244  27222.000000  0   -1798462.201   -179048.365  -6653784.178
10 0 59244  27342.000000  0   -2583639.632    216882.029  -6388711.966
10 0 59244  27462.000000  0   -3317026.842    622342.072  -6012124.732
10 0 59244  27582.000000  0   -3985774.102   1029277.881  -5530516.578
10 0 59244  27702.000000  0   -4578266.205   1429381.815  -4952211.592
10 0 59244  27822.000000  0   -5084328.862   1814258.228  -4287232.420
10 0 59244  27942.000000  0   -5495411.443   2175597.047  -3547136.512
10 0 59244  28062.000000  0   -5804740.784   2505349.672  -2744823.723
10 0 59244  28182.000000  0   -6007444.218   2795904.948  -1894317.207
10 0 59244  28302.000000  0   -6100637.283   3040260.993  -1010519.896
10 0 59244  28422.000000  0   -6083472.994   3232188.684   -108950.949
10 0 59244  28542.000000  0   -5957150.838   3366381.656    794533.133
10 0 59244  28662.000000  0   -5724883.093   3438588.566   1684026.346
10 0 59244  28782.000000  0   -5391820.068   3445724.907   2543862.152
10 0 59244  28902.000000  0   -4964936.629   3385960.736   3358897.569
10 0 59244  29022.000000  0   -4452883.275   3258782.284   4114787.088
10 0 59244  29142.000000  0   -3865804.498   3065025.499   4798239.535
10 0 59244  29262.000000  0   -3215131.372   2806881.750   5397252.195
10 0 59244  29382.000000  0   -2513352.140   2487876.676   5901320.834
10 0 59244  29502.000000  0   -1773765.680   2112821.079   6301619.895
10 0 59244  29622.000000  0   -1010224.054   1687735.754   6591151.049
10 0 59244  29742.000000  0    -236870.762   1219752.435   6764857.740
10 0 59244  29862.000000  0     532120.720    716992.425   6819708.148
10 0 59244  29982.000000  0    1282806.010    188425.386   6754744.511
10 0 59244  30102.000000  0    2001721.327   -356289.866   6571098.880
10 0 59244  30222.000000  0    2676124.154   -906981.252   6271975.495
10 0 59244  30342.000000  0    3294219.844  -1453152.379   5862599.166
10 0 59244  30462.000000  0    3845371.264  -1984182.216   5350129.768
10 0 59244  30582.000000  0    4320285.935  -2489531.746   4743542.175
10 0 59244  30702.000000  0    4711178.208  -2958954.066   4053475.474
10 0 59244  30822.000000  0    5011904.290  -3382704.870   3292050.982
10 0 59244  30942.000000  0    5218066.071  -3751746.991   2472659.988
10 0 59244  31062.000000  0    5327079.328  -4057944.114   1609725.793
10 0 59244  31182.000000  0    5338205.514  -4294240.151    718445.649
10 0 59244  31302.000000  0    5252546.911  -4454818.509   -185483.638
10 0 59244  31422.000000  0    5073004.421  -4535238.015  -1086150.588
10 0 59244  31542.000000  0    4804198.518  -4532540.617  -1967718.315
10 0 59244  31662.000000  0    4452355.740  -4445328.756  -2814710.977
10 0 59244  31782.000000  0    4025164.141  -4273810.746  -3612290.822
10 0 59244  31902.000000  0    3531601.925  -4019813.319  -4346520.590
10 0 59244  32022.000000  0    2981743.830  -3686761.537  -5004605.451
10 0 59244  32142.000000  0    2386550.147  -3279627.670  -5575110.303
10 0 59244  32262.000000  0    1757645.105  -2804851.099  -6048148.493
99
